IRIDIUM 155             
1 43573U 18061E   21029.42961253  .00000069  00000-0  17406-4 0  9991
2 43573  86.4010 157.8281 0001567  88.5552 271.5823 14.34216726131747
IRIDIUM 154             
1 43574U 18061F   21029.41059780  .00000074  00000-0  19509-4 0  9996
2 43574  86.4013 157.8761 0002345  94.4895 265.6569 14.34217380131798
IRIDIUM 163             
1 43575U 18061G   21029.60087683  .00000073  00000-0  19057-4 0  9998
2 43575  86.4011 157.7718 0002252 110.5501 249.5936 14.34217433131797
IRIDIUM 156             
1 43576U 18061H   21029.43596416  .00000076  00000-0  19944-4 0  9997
2 43576  86.4011 157.8455 0001819 104.3716 255.7682 14.34216692131764
IRIDIUM 164             
1 43577U 18061J   21029.41693897  .00000075  00000-0  19649-4 0  9998
2 43577  86.4012 157.8640 0002306  98.2198 261.9260 14.34216513131807
IRIDIUM 159             
1 43578U 18061K   21029.59451945  .00000078  00000-0  20944-4 0  9997
2 43578  86.4010 157.7679 0002258  95.8562 264.2892 14.34219169131796
IRIDIUM 180             
1 43922U 19002A   21029.45448088  .00000094  00000-0  26622-4 0  9992
2 43922  86.3955  94.6902 0003263 100.3712 259.7851 14.34218684107383
IRIDIUM 176             
1 43923U 19002B   21029.41649067  .00000181  00000-0  24710-4 0  9992
2 43923  86.6089  94.7379 0002638  92.4776 267.6743 14.72257101110178
IRIDIUM 168             
1 43924U 19002C   21029.58769117  .00000095  00000-0  26930-4 0  9990
2 43924  86.3957  94.6562 0002497  94.3340 265.8141 14.34217301107381
IRIDIUM 173             
1 43925U 19002D   21029.43546378  .00000097  00000-0  27511-4 0  9995
2 43925  86.3953  94.6886 0002429  96.2957 263.8515 14.34216923107345
IRIDIUM 169             
1 43926U 19002E   21029.51036283  .00000107  00000-0  28526-4 0  9993
2 43926  86.4248 126.2591 0004083 353.4942   6.6202 14.38614466107769
IRIDIUM 172             
1 43927U 19002F   21029.42910870  .00000091  00000-0  25347-4 0  9997
2 43927  86.3954  94.6931 0002512  96.3435 263.8046 14.34218692107359
IRIDIUM 175             
1 43928U 19002G   21029.41031188  .00000175  00000-0  23886-4 0  9992
2 43928  86.6076  94.5879 0002288 110.8887 249.2576 14.72249766110168
IRIDIUM 171             
1 43929U 19002H   21029.27055388  .00000090  00000-0  24996-4 0  9994
2 43929  86.3964  94.8475 0002476  93.9613 266.1866 14.34217748107321
IRIDIUM 170             
1 43930U 19002J   21029.49065891  .00000175  00000-0  23790-4 0  9995
2 43930  86.6090  94.7136 0002524  99.6328 260.5174 14.72248551110196
IRIDIUM 167             
1 43931U 19002K   21029.47351686  .00000091  00000-0  25358-4 0  9993
2 43931  86.3954  94.6796 0003058  97.5230 262.6313 14.34217516107353
